FORMOSAT 7-3
1 44343U 19036E   26195.80707908  .00002587  00000+0  13444-3 0  9999
2 44343  24.0000 348.4178 0000144 225.7106 134.3386 15.09992955387429
